[ {"CCSDS_OMM_VERS": "3.0", "COMMENT": "GENERATED VIA SPACE-TRACK.ORG API", "CREATION_DATE": "2020-02-23T19:25:00", "ORIGINATOR": "18 SPCS", "OBJECT_NAME": "OPS-SAT", "OBJECT_ID": "2019-092F", "CENTER_NAME": "EARTH", "REF_FRAME": "TEME", "TIME_SYSTEM": "UTC", "MEAN_ELEMENT_THEORY": "SGP4", "EPOCH": "2020-02-23T05:01:46.531776", "MEAN_MOTION": "15.15269767", "ECCENTRICITY": "0.00148240", "INCLINATION": "97.4642", "RA_OF_ASC_NODE": "239.4636", "ARG_OF_PERICENTER": "42.4050", "MEAN_ANOMALY": "317.8371", "EPHEMERIS_TYPE": "0", "CLASSIFICATION_TYPE": "U", "NORAD_CAT_ID": "44878", "ELEMENT_SET_NO": "999", "REV_AT_EPOCH": "1008", "BSTAR": "0.00000000000000", "MEAN_MOTION_DOT": "-0.00000066", "MEAN_MOTION_DDOT": "0.0000000000000", "SEMIMAJOR_AXIS": "6898.296", "PERIOD": "95.032", "APOAPSIS": "530.387", "PERIAPSIS": "509.935", "OBJECT_TYPE": "PAYLOAD", "RCS_SIZE": "SMALL", "COUNTRY_CODE": "ESA", "LAUNCH_DATE": "2019-12-18", "SITE": "FRGUI", "DECAY_DATE": null, "FILE": "2708573", "GP_ID": "149348277", "TLE_LINE0": "0 OPS-SAT", "TLE_LINE1": "1 44878U 19092F   20054.20956634 -.00000066 +00000-0 +00000-0 0  9991", "TLE_LINE2": "2 44878 097.4642 239.4636 0014824 042.4050 317.8371 15.15269767010080"}, {"CCSDS_OMM_VERS": "3.0", "COMMENT": "GENERATED VIA SPACE-TRACK.ORG API", "CREATION_DATE": "2020-02-24T02:48:55", "ORIGINATOR": "18 SPCS", "OBJECT_NAME": "OPS-SAT", "OBJECT_ID": "2019-092F", "CENTER_NAME": "EARTH", "REF_FRAME": "TEME", "TIME_SYSTEM": "UTC", "MEAN_ELEMENT_THEORY": "SGP4", "EPOCH": "2020-02-23T14:32:19.891392", "MEAN_MOTION": "15.15270752", "ECCENTRICITY": "0.00153500", "INCLINATION": "97.4633", "RA_OF_ASC_NODE": "239.8529", "ARG_OF_PERICENTER": "39.3904", "MEAN_ANOMALY": "320.8453", "EPHEMERIS_TYPE": "0", "CLASSIFICATION_TYPE": "U", "NORAD_CAT_ID": "44878", "ELEMENT_SET_NO": "999", "REV_AT_EPOCH": "1014", "BSTAR": "0.00000000000000", "MEAN_MOTION_DOT": "-0.00000066", "MEAN_MOTION_DDOT": "0.0000000000000", "SEMIMAJOR_AXIS": "6898.293", "PERIOD": "95.032", "APOAPSIS": "530.747", "PERIAPSIS": "509.569", "OBJECT_TYPE": "PAYLOAD", "RCS_SIZE": "SMALL", "COUNTRY_CODE": "ESA", "LAUNCH_DATE": "2019-12-18", "SITE": "FRGUI", "DECAY_DATE": null, "FILE": "2708763", "GP_ID": "149391381", "TLE_LINE0": "0 OPS-SAT", "TLE_LINE1": "1 44878U 19092F   20054.60578578 -.00000066 +00000-0 +00000-0 0  9992", "TLE_LINE2": "2 44878 097.4633 239.8529 0015350 039.3904 320.8453 15.15270752010141"}, {"CCSDS_OMM_VERS": "3.0", "COMMENT": "GENERATED VIA SPACE-TRACK.ORG API", "CREATION_DATE": "2020-02-24T16:37:23", "ORIGINATOR": "18 SPCS", "OBJECT_NAME": "OPS-SAT", "OBJECT_ID": "2019-092F", "CENTER_NAME": "EARTH", "REF_FRAME": "TEME", "TIME_SYSTEM": "UTC", "MEAN_ELEMENT_THEORY": "SGP4", "EPOCH": "2020-02-24T04:48:09.944640", "MEAN_MOTION": "15.15271306", "ECCENTRICITY": "0.00150570", "INCLINATION": "97.4635", "RA_OF_ASC_NODE": "240.4357", "ARG_OF_PERICENTER": "37.2231", "MEAN_ANOMALY": "323.0104", "EPHEMERIS_TYPE": "0", "CLASSIFICATION_TYPE": "U", "NORAD_CAT_ID": "44878", "ELEMENT_SET_NO": "999", "REV_AT_EPOCH": "1023", "BSTAR": "0.00000000000000", "MEAN_MOTION_DOT": "-0.00000066", "MEAN_MOTION_DDOT": "0.0000000000000", "SEMIMAJOR_AXIS": "6898.292", "PERIOD": "95.032", "APOAPSIS": "530.543", "PERIAPSIS": "509.770", "OBJECT_TYPE": "PAYLOAD", "RCS_SIZE": "SMALL", "COUNTRY_CODE": "ESA", "LAUNCH_DATE": "2019-12-18", "SITE": "FRGUI", "DECAY_DATE": null, "FILE": "2709133", "GP_ID": "149419455", "TLE_LINE0": "0 OPS-SAT", "TLE_LINE1": "1 44878U 19092F   20055.20011510 -.00000066 +00000-0 +00000-0 0  9997", "TLE_LINE2": "2 44878 097.4635 240.4357 0015057 037.2231 323.0104 15.15271306010238"}, {"CCSDS_OMM_VERS": "3.0", "COMMENT": "GENERATED VIA SPACE-TRACK.ORG API", "CREATION_DATE": "2020-02-24T14:26:16", "ORIGINATOR": "18 SPCS", "OBJECT_NAME": "OPS-SAT", "OBJECT_ID": "2019-092F", "CENTER_NAME": "EARTH", "REF_FRAME": "TEME", "TIME_SYSTEM": "UTC", "MEAN_ELEMENT_THEORY": "SGP4", "EPOCH": "2020-02-24T11:08:32.108928", "MEAN_MOTION": "15.15271695", "ECCENTRICITY": "0.00146170", "INCLINATION": "97.4635", "RA_OF_ASC_NODE": "240.6954", "ARG_OF_PERICENTER": "37.2490", "MEAN_ANOMALY": "322.9849", "EPHEMERIS_TYPE": "0", "CLASSIFICATION_TYPE": "U", "NORAD_CAT_ID": "44878", "ELEMENT_SET_NO": "999", "REV_AT_EPOCH": "1027", "BSTAR": "0.00000000000000", "MEAN_MOTION_DOT": "-0.00000066", "MEAN_MOTION_DDOT": "0.0000000000000", "SEMIMAJOR_AXIS": "6898.290", "PERIOD": "95.032", "APOAPSIS": "530.239", "PERIAPSIS": "510.072", "OBJECT_TYPE": "PAYLOAD", "RCS_SIZE": "SMALL", "COUNTRY_CODE": "ESA", "LAUNCH_DATE": "2019-12-18", "SITE": "FRGUI", "DECAY_DATE": null, "FILE": "2708974", "GP_ID": "149395973", "TLE_LINE0": "0 OPS-SAT", "TLE_LINE1": "1 44878U 19092F   20055.46426052 -.00000066  00000-0  00000+0 0  9995", "TLE_LINE2": "2 44878  97.4635 240.6954 0014617  37.2490 322.9849 15.15271695 10270"}, {"CCSDS_OMM_VERS": "3.0", "COMMENT": "GENERATED VIA SPACE-TRACK.ORG API", "CREATION_DATE": "2020-02-25T03:13:07", "ORIGINATOR": "18 SPCS", "OBJECT_NAME": "OPS-SAT", "OBJECT_ID": "2019-092F", "CENTER_NAME": "EARTH", "REF_FRAME": "TEME", "TIME_SYSTEM": "UTC", "MEAN_ELEMENT_THEORY": "SGP4", "EPOCH": "2020-02-24T19:03:59.779296", "MEAN_MOTION": "15.15272125", "ECCENTRICITY": "0.00144330", "INCLINATION": "97.4628", "RA_OF_ASC_NODE": "241.0201", "ARG_OF_PERICENTER": "37.9994", "MEAN_ANOMALY": "322.2316", "EPHEMERIS_TYPE": "0", "CLASSIFICATION_TYPE": "U", "NORAD_CAT_ID": "44878", "ELEMENT_SET_NO": "999", "REV_AT_EPOCH": "1032", "BSTAR": "0.00000000000000", "MEAN_MOTION_DOT": "-0.00000066", "MEAN_MOTION_DDOT": "0.0000000000000", "SEMIMAJOR_AXIS": "6898.289", "PERIOD": "95.032", "APOAPSIS": "530.110", "PERIAPSIS": "510.198", "OBJECT_TYPE": "PAYLOAD", "RCS_SIZE": "SMALL", "COUNTRY_CODE": "ESA", "LAUNCH_DATE": "2019-12-18", "SITE": "FRGUI", "DECAY_DATE": null, "FILE": "2709386", "GP_ID": "149441878", "TLE_LINE0": "0 OPS-SAT", "TLE_LINE1": "1 44878U 19092F   20055.79444189 -.00000066 +00000-0 +00000-0 0  9993", "TLE_LINE2": "2 44878 097.4628 241.0201 0014433 037.9994 322.2316 15.15272125010321"}, {"CCSDS_OMM_VERS": "3.0", "COMMENT": "GENERATED VIA SPACE-TRACK.ORG API", "CREATION_DATE": "2020-02-25T17:06:32", "ORIGINATOR": "18 SPCS", "OBJECT_NAME": "OPS-SAT", "OBJECT_ID": "2019-092F", "CENTER_NAME": "EARTH", "REF_FRAME": "TEME", "TIME_SYSTEM": "UTC", "MEAN_ELEMENT_THEORY": "SGP4", "EPOCH": "2020-02-25T10:54:55.291968", "MEAN_MOTION": "15.15273077", "ECCENTRICITY": "0.00139330", "INCLINATION": "97.4629", "RA_OF_ASC_NODE": "241.6699", "ARG_OF_PERICENTER": "35.4092", "MEAN_ANOMALY": "324.8219", "EPHEMERIS_TYPE": "0", "CLASSIFICATION_TYPE": "U", "NORAD_CAT_ID": "44878", "ELEMENT_SET_NO": "999", "REV_AT_EPOCH": "1042", "BSTAR": "0.00000000000000", "MEAN_MOTION_DOT": "-0.00000066", "MEAN_MOTION_DDOT": "0.0000000000000", "SEMIMAJOR_AXIS": "6898.286", "PERIOD": "95.032", "APOAPSIS": "529.763", "PERIAPSIS": "510.540", "OBJECT_TYPE": "PAYLOAD", "RCS_SIZE": "SMALL", "COUNTRY_CODE": "ESA", "LAUNCH_DATE": "2019-12-18", "SITE": "FRGUI", "DECAY_DATE": null, "FILE": "2709763", "GP_ID": "149490257", "TLE_LINE0": "0 OPS-SAT", "TLE_LINE1": "1 44878U 19092F   20056.45480662 -.00000066 +00000-0 +00000-0 0  9993", "TLE_LINE2": "2 44878 097.4629 241.6699 0013933 035.4092 324.8219 15.15273077010423"}, {"CCSDS_OMM_VERS": "3.0", "COMMENT": "GENERATED VIA SPACE-TRACK.ORG API", "CREATION_DATE": "2020-02-25T22:26:14", "ORIGINATOR": "18 SPCS", "OBJECT_NAME": "OPS-SAT", "OBJECT_ID": "2019-092F", "CENTER_NAME": "EARTH", "REF_FRAME": "TEME", "TIME_SYSTEM": "UTC", "MEAN_ELEMENT_THEORY": "SGP4", "EPOCH": "2020-02-25T14:05:06.163296", "MEAN_MOTION": "15.15273309", "ECCENTRICITY": "0.00140090", "INCLINATION": "97.4629", "RA_OF_ASC_NODE": "241.7996", "ARG_OF_PERICENTER": "34.8526", "MEAN_ANOMALY": "325.3628", "EPHEMERIS_TYPE": "0", "CLASSIFICATION_TYPE": "U", "NORAD_CAT_ID": "44878", "ELEMENT_SET_NO": "999", "REV_AT_EPOCH": "1044", "BSTAR": "0.00000000000000", "MEAN_MOTION_DOT": "-0.00000066", "MEAN_MOTION_DDOT": "0.0000000000000", "SEMIMAJOR_AXIS": "6898.285", "PERIOD": "95.032", "APOAPSIS": "529.814", "PERIAPSIS": "510.487", "OBJECT_TYPE": "PAYLOAD", "RCS_SIZE": "SMALL", "COUNTRY_CODE": "ESA", "LAUNCH_DATE": "2019-12-18", "SITE": "FRGUI", "DECAY_DATE": null, "FILE": "2709802", "GP_ID": "149510577", "TLE_LINE0": "0 OPS-SAT", "TLE_LINE1": "1 44878U 19092F   20056.58687689 -.00000066  00000-0  00000+0 0  9994", "TLE_LINE2": "2 44878  97.4629 241.7996 0014009  34.8526 325.3628 15.15273309 10444"}, {"CCSDS_OMM_VERS": "3.0", "COMMENT": "GENERATED VIA SPACE-TRACK.ORG API", "CREATION_DATE": "2020-02-26T19:49:45", "ORIGINATOR": "18 SPCS", "OBJECT_NAME": "OPS-SAT", "OBJECT_ID": "2019-092F", "CENTER_NAME": "EARTH", "REF_FRAME": "TEME", "TIME_SYSTEM": "UTC", "MEAN_ELEMENT_THEORY": "SGP4", "EPOCH": "2020-02-26T04:20:56.131872", "MEAN_MOTION": "15.15274139", "ECCENTRICITY": "0.00144240", "INCLINATION": "97.4631", "RA_OF_ASC_NODE": "242.3838", "ARG_OF_PERICENTER": "31.9076", "MEAN_ANOMALY": "328.3041", "EPHEMERIS_TYPE": "0", "CLASSIFICATION_TYPE": "U", "NORAD_CAT_ID": "44878", "ELEMENT_SET_NO": "999", "REV_AT_EPOCH": "1053", "BSTAR": "0.00000000000000", "MEAN_MOTION_DOT": "-0.00000066", "MEAN_MOTION_DDOT": "0.0000000000000", "SEMIMAJOR_AXIS": "6898.283", "PERIOD": "95.032", "APOAPSIS": "530.098", "PERIAPSIS": "510.198", "OBJECT_TYPE": "PAYLOAD", "RCS_SIZE": "SMALL", "COUNTRY_CODE": "ESA", "LAUNCH_DATE": "2019-12-18", "SITE": "FRGUI", "DECAY_DATE": null, "FILE": "2710106", "GP_ID": "149556429", "TLE_LINE0": "0 OPS-SAT", "TLE_LINE1": "1 44878U 19092F   20057.18120523 -.00000066 +00000-0 +00000-0 0  9991", "TLE_LINE2": "2 44878 097.4631 242.3838 0014424 031.9076 328.3041 15.15274139010532"}]